SAR-LUPE 2              
1 31797U 07030A   26190.72276803  .00019219  00000+0  30510-3 0  9993
2 31797  98.1048 298.0124 0004319 223.3219 136.7693 15.53409239 60433
SARAL                   
1 39086U 13009A   26190.80550515  .00000056  00000+0  36520-4 0  9996
2 39086  98.5554  17.0866 0001370 181.2570 178.8611 14.32894850698848
SAOCOM 1A               
1 43641U 18076A   26190.81955931  .00000897  00000+0  11929-3 0  9997
2 43641  97.8893  17.2396 0001493  84.7856 275.3528 14.82147351419458
SAUDISAT 5A             
1 43831U 18102A   26190.88646469  .00003796  00000+0  14023-3 0  9997
2 43831  97.3058 252.0313 0010849  60.3433 299.8886 15.28286070419148
SAUDISAT 5B             
1 43833U 18102C   26190.83611806  .00003598  00000+0  13207-3 0  9994
2 43833  97.3167 255.0928 0011610  61.9774 298.2639 15.28530434419255
RISAT-2B                
1 44233U 19028A   26190.49270392  .00001424  00000+0  11544-3 0  9998
2 44233  36.9959 221.7867 0008468 220.8512 139.1597 15.01069603391186
RISAT-2BR1              
1 44857U 19089F   26190.82765668  .00002208  00000+0  17509-3 0  9997
2 44857  36.9614 337.2648 0010339   1.7074 358.3702 15.01142044360602
SAOCOM 1B               
1 46265U 20059A   26190.85080255 -.00000090  00000+0 -47758-5 0  9996
2 46265  97.8897  16.3664 0001549  80.9928 279.1461 14.82154672316846
RISAT-2BR2              
1 46905U 20081A   26190.89197251  .00002018  00000+0  16020-3 0  9997
2 46905  36.8983  89.4729 0014201 337.5609  22.4510 15.01158314310886
RESURS-P 4              
1 59371U 24061A   26190.85978833  .00002054  00000+0  68378-4 0  9993
2 59371  97.2754 138.3661 0003223  97.7805 262.3803 15.32260625127236
